{
  "type": "FeatureCollection",
  "features": [
    {
      "type": "Feature",
      "properties": {
        "norad_id": 34614,
        "name": "COSMOS 2251 DEB",
        "group": "cosmos-2251-debris",
        "lat": 73.39605988849122,
        "lon": 84.63223942797183,
        "alt_km": 895.0398488473129,
        "timestamp": "2025-12-14T14:39:29.763865+00:00",
        "meta_object_name": "COSMOS 2251 DEB",
        "meta_object_id": "1993-036WK",
        "meta_epoch": "2025-12-13T23:06:19.871136",
        "meta_mean_motion": 14.17551665,
        "meta_eccentricity": 0.01975997,
        "meta_inclination": 73.8805,
        "meta_ra_of_asc_node": 341.6851,
        "meta_arg_of_pericenter": 335.4013,
        "meta_mean_anomaly": 50.8547,
        "meta_ephemeris_type": 0,
        "meta_classification_type": "U",
        "meta_norad_cat_id": 34614,
        "meta_element_set_no": 999,
        "meta_rev_at_epoch": 84784,
        "meta_bstar": 0.006472297,
        "meta_mean_motion_dot": 0.00015936,
        "meta_mean_motion_ddot": 0,
        "tle_line1": "1 34614U 93036WK  25347.96272999  .00015936  00000+0  64723-2 0  9990",
        "tle_line2": "2 34614  73.8805 341.6851 0197599 335.4013  50.8547 14.17551665847849"
      },
      "geometry": {
        "type": "Point",
        "coordinates": [
          84.63223942797183,
          73.39605988849122
        ]
      }
    },
    {
      "type": "Feature",
      "properties": {
        "norad_id": 34615,
        "name": "COSMOS 2251 DEB",
        "group": "cosmos-2251-debris",
        "lat": -73.99558665282903,
        "lon": -159.23426888515914,
        "alt_km": 967.5986874854343,
        "timestamp": "2025-12-14T14:39:29.763875+00:00",
        "meta_object_name": "COSMOS 2251 DEB",
        "meta_object_id": "1993-036WL",
        "meta_epoch": "2025-12-11T15:13:30.717120",
        "meta_mean_motion": 13.52202046,
        "meta_eccentricity": 0.04013404,
        "meta_inclination": 74.005,
        "meta_ra_of_asc_node": 295.914,
        "meta_arg_of_pericenter": 203.3816,
        "meta_mean_anomaly": 338.769,
        "meta_ephemeris_type": 0,
        "meta_classification_type": "U",
        "meta_norad_cat_id": 34615,
        "meta_element_set_no": 999,
        "meta_rev_at_epoch": 82800,
        "meta_bstar": 0.00021166372,
        "meta_mean_motion_dot": 2.1e-06,
        "meta_mean_motion_ddot": 0,
        "tle_line1": "1 34615U 93036WL  25345.63438330  .00000210  00000+0  21166-3 0  9990",
        "tle_line2": "2 34615  74.0050 295.9140 0401340 203.3816 338.7690 13.52202046828001"
      },
      "geometry": {
        "type": "Point",
        "coordinates": [
          -159.23426888515914,
          -73.99558665282903
        ]
      }
    },
    {
      "type": "Feature",
      "properties": {
        "norad_id": 34619,
        "name": "COSMOS 2251 DEB",
        "group": "cosmos-2251-debris",
        "lat": -28.249920440125372,
        "lon": 25.187657672052637,
        "alt_km": 673.0091421335501,
        "timestamp": "2025-12-14T14:39:29.763885+00:00",
        "meta_object_name": "COSMOS 2251 DEB",
        "meta_object_id": "1993-036WQ",
        "meta_epoch": "2025-12-13T06:32:57.785856",
        "meta_mean_motion": 14.64648644,
        "meta_eccentricity": 0.00947184,
        "meta_inclination": 74.0441,
        "meta_ra_of_asc_node": 198.9146,
        "meta_arg_of_pericenter": 293.6523,
        "meta_mean_anomaly": 65.4724,
        "meta_ephemeris_type": 0,
        "meta_classification_type": "U",
        "meta_norad_cat_id": 34619,
        "meta_element_set_no": 999,
        "meta_rev_at_epoch": 89306,
        "meta_bstar": 0.00035297144,
        "meta_mean_motion_dot": 1.97e-05,
        "meta_mean_motion_ddot": 0,
        "tle_line1": "1 34619U 93036WQ  25347.27289104  .00001970  00000+0  35297-3 0  9993",
        "tle_line2": "2 34619  74.0441 198.9146 0094718 293.6523  65.4724 14.64648644893063"
      },
      "geometry": {
        "type": "Point",
        "coordinates": [
          25.187657672052637,
          -28.249920440125372
        ]
      }
    },
    {
      "type": "Feature",
      "properties": {
        "norad_id": 34620,
        "name": "COSMOS 2251 DEB",
        "group": "cosmos-2251-debris",
        "lat": -14.716684879189687,
        "lon": -148.27989264527008,
        "alt_km": 735.0987179673011,
        "timestamp": "2025-12-14T14:39:29.763895+00:00",
        "meta_object_name": "COSMOS 2251 DEB",
        "meta_object_id": "1993-036WR",
        "meta_epoch": "2025-12-13T00:37:17.720256",
        "meta_mean_motion": 14.49111919,
        "meta_eccentricity": 0.00806252,
        "meta_inclination": 74.0516,
        "meta_ra_of_asc_node": 218.9958,
        "meta_arg_of_pericenter": 255.3546,
        "meta_mean_anomaly": 103.8666,
        "meta_ephemeris_type": 0,
        "meta_classification_type": "U",
        "meta_norad_cat_id": 34620,
        "meta_element_set_no": 999,
        "meta_rev_at_epoch": 86831,
        "meta_bstar": 0.0030494488,
        "meta_mean_motion_dot": 0.00012073,
        "meta_mean_motion_ddot": 0,
        "tle_line1": "1 34620U 93036WR  25347.02589954  .00012073  00000+0  30494-2 0  9993",
        "tle_line2": "2 34620  74.0516 218.9958 0080625 255.3546 103.8666 14.49111919868319"
      },
      "geometry": {
        "type": "Point",
        "coordinates": [
          -148.27989264527008,
          -14.716684879189687
        ]
      }
    },
    {
      "type": "Feature",
      "properties": {
        "norad_id": 34622,
        "name": "COSMOS 2251 DEB",
        "group": "cosmos-2251-debris",
        "lat": 19.20262521868343,
        "lon": 117.9356182529207,
        "alt_km": 870.2326580943509,
        "timestamp": "2025-12-14T14:39:29.763904+00:00",
        "meta_object_name": "COSMOS 2251 DEB",
        "meta_object_id": "1993-036WT",
        "meta_epoch": "2025-12-13T21:10:21.042336",
        "meta_mean_motion": 14.22051982,
        "meta_eccentricity": 0.01044223,
        "meta_inclination": 74.0421,
        "meta_ra_of_asc_node": 304.9617,
        "meta_arg_of_pericenter": 27.1418,
        "meta_mean_anomaly": 3.5154,
        "meta_ephemeris_type": 0,
        "meta_classification_type": "U",
        "meta_norad_cat_id": 34622,
        "meta_element_set_no": 999,
        "meta_rev_at_epoch": 86476,
        "meta_bstar": 0.00112514,
        "meta_mean_motion_dot": 2.606e-05,
        "meta_mean_motion_ddot": 0,
        "tle_line1": "1 34622U 93036WT  25347.88218799  .00002606  00000+0  11251-2 0  9996",
        "tle_line2": "2 34622  74.0421 304.9617 0104422  27.1418   3.5154 14.22051982864766"
      },
      "geometry": {
        "type": "Point",
        "coordinates": [
          117.9356182529207,
          19.20262521868343
        ]
      }
    },
    {
      "type": "Feature",
      "properties": {
        "norad_id": 34626,
        "name": "COSMOS 2251 DEB",
        "group": "cosmos-2251-debris",
        "lat": -37.36326776991178,
        "lon": -52.357793330503725,
        "alt_km": 658.9772542442988,
        "timestamp": "2025-12-14T14:39:29.763915+00:00",
        "meta_object_name": "COSMOS 2251 DEB",
        "meta_object_id": "1993-036WX",
        "meta_epoch": "2025-12-14T00:26:32.059104",
        "meta_mean_motion": 14.72218676,
        "meta_eccentricity": 0.00266215,
        "meta_inclination": 74.0482,
        "meta_ra_of_asc_node": 321.408,
        "meta_arg_of_pericenter": 49.2512,
        "meta_mean_anomaly": 13.9427,
        "meta_ephemeris_type": 0,
        "meta_classification_type": "U",
        "meta_norad_cat_id": 34626,
        "meta_element_set_no": 999,
        "meta_rev_at_epoch": 89163,
        "meta_bstar": 0.0011668757,
        "meta_mean_motion_dot": 7.379e-05,
        "meta_mean_motion_ddot": 0,
        "tle_line1": "1 34626U 93036WX  25348.01842661  .00007379  00000+0  11669-2 0  9992",
        "tle_line2": "2 34626  74.0482 321.4080 0026621  49.2512  13.9427 14.72218676891633"
      },
      "geometry": {
        "type": "Point",
        "coordinates": [
          -52.357793330503725,
          -37.36326776991178
        ]
      }
    },
    {
      "type": "Feature",
      "properties": {
        "norad_id": 34634,
        "name": "COSMOS 2251 DEB",
        "group": "cosmos-2251-debris",
        "lat": 15.055128003953829,
        "lon": 35.84251922092863,
        "alt_km": 724.3974188092716,
        "timestamp": "2025-12-14T14:39:29.763925+00:00",
        "meta_object_name": "COSMOS 2251 DEB",
        "meta_object_id": "1993-036XF",
        "meta_epoch": "2025-12-13T14:33:11.452320",
        "meta_mean_motion": 14.55662482,
        "meta_eccentricity": 0.00440986,
        "meta_inclination": 74.0531,
        "meta_ra_of_asc_node": 33.3321,
        "meta_arg_of_pericenter": 140.4838,
        "meta_mean_anomaly": 14.546,
        "meta_ephemeris_type": 0,
        "meta_classification_type": "U",
        "meta_norad_cat_id": 34634,
        "meta_element_set_no": 999,
        "meta_rev_at_epoch": 88794,
        "meta_bstar": 0.00044657172,
        "meta_mean_motion_dot": 1.948e-05,
        "meta_mean_motion_ddot": 0,
        "tle_line1": "1 34634U 93036XF  25347.60638255  .00001948  00000+0  44657-3 0  9997",
        "tle_line2": "2 34634  74.0531  33.3321 0044098 140.4838  14.5460 14.55662482887949"
      },
      "geometry": {
        "type": "Point",
        "coordinates": [
          35.84251922092863,
          15.055128003953829
        ]
      }
    }
  ]
}